{"type": "FeatureCollection", "features": [ {"type": "Feature", "properties": {"norad_id": 33939, "name": "COSMOS 2251 DEB", "group": "cosmos-2251-debris", "lat": -5.879830851715738, "lon": -117.52156507745447, "alt_km": 571.8320456519532, "timestamp": "2025-12-22T11:33:20.833199+00:00", "meta": {"OBJECT_NAME": "COSMOS 2251 DEB", "OBJECT_ID": "1993-036EU", "EPOCH": "2025-12-22T04:19:45.158592", "MEAN_MOTION": 15.00500361, "ECCENTRICITY": 0.0004711, "INCLINATION": 74.0057, "RA_OF_ASC_NODE": 61.399, "ARG_OF_PERICENTER": 23.4951, "MEAN_ANOMALY": 336.645, "EPHEMERIS_TYPE": 0, "CLASSIFICATION_TYPE": "U", "NORAD_CAT_ID": 33939, "ELEMENT_SET_NO": 999, "REV_AT_EPOCH": 88894, "BSTAR": 0.0031413, "MEAN_MOTION_DOT": 0.00039787, "MEAN_MOTION_DDOT": 0}, "tle": {"line1": "1 33939U 93036EU  25356.18038378  .00039787  00000+0  31413-2 0  9994", "line2": "2 33939  74.0057  61.3990 0004711  23.4951 336.6450 15.00500361888942"}}, "geometry": {"type": "Point", "coordinates": [-117.52156507745447, -5.879830851715738]}}, {"type": "Feature", "properties": {"norad_id": 33940, "name": "COSMOS 2251 DEB", "group": "cosmos-2251-debris", "lat": -50.88941273382935, "lon": 104.33715906389607, "alt_km": 704.7956350577515, "timestamp": "2025-12-22T11:33:20.833209+00:00", "meta": {"OBJECT_NAME": "COSMOS 2251 DEB", "OBJECT_ID": "1993-036EV", "EPOCH": "2025-12-22T02:44:04.121376", "MEAN_MOTION": 14.58878644, "ECCENTRICITY": 0.0010858, "INCLINATION": 74.04, "RA_OF_ASC_NODE": 125.6471, "ARG_OF_PERICENTER": 206.2214, "MEAN_ANOMALY": 330.327, "EPHEMERIS_TYPE": 0, "CLASSIFICATION_TYPE": "U", "NORAD_CAT_ID": 33940, "ELEMENT_SET_NO": 999, "REV_AT_EPOCH": 88730, "BSTAR": 0.0011271, "MEAN_MOTION_DOT": 5.257e-05, "MEAN_MOTION_DDOT": 0}, "tle": {"line1": "1 33940U 93036EV  25356.11393659  .00005257  00000+0  11271-2 0  9990", "line2": "2 33940  74.0400 125.6471 0010858 206.2214 330.3270 14.58878644887300"}}, "geometry": {"type": "Point", "coordinates": [104.33715906389607, -50.88941273382935]}}, {"type": "Feature", "properties": {"norad_id": 33942, "name": "COSMOS 2251 DEB", "group": "cosmos-2251-debris", "lat": 44.43483325780775, "lon": 60.589311298172355, "alt_km": 774.3518281225361, "timestamp": "2025-12-22T11:33:20.833219+00:00", "meta": {"OBJECT_NAME": "COSMOS 2251 DEB", "OBJECT_ID": "1993-036EX", "EPOCH": "2025-12-21T21:55:52.040064", "MEAN_MOTION": 14.38000996, "ECCENTRICITY": 0.0020691, "INCLINATION": 74.0364, "RA_OF_ASC_NODE": 257.9335, "ARG_OF_PERICENTER": 339.5262, "MEAN_ANOMALY": 95.9039, "EPHEMERIS_TYPE": 0, "CLASSIFICATION_TYPE": "U", "NORAD_CAT_ID": 33942, "ELEMENT_SET_NO": 999, "REV_AT_EPOCH": 88266, "BSTAR": 0.00019402, "MEAN_MOTION_DOT": 5.62e-06, "MEAN_MOTION_DDOT": 0}, "tle": {"line1": "1 33942U 93036EX  25355.91379676  .00000562  00000+0  19402-3 0  9991", "line2": "2 33942  74.0364 257.9335 0020691 339.5262  95.9039 14.38000996882664"}}, "geometry": {"type": "Point", "coordinates": [60.589311298172355, 44.43483325780775]}}, {"type": "Feature", "properties": {"norad_id": 33944, "name": "COSMOS 2251 DEB", "group": "cosmos-2251-debris", "lat": -15.306631448771158, "lon": -73.48846874495416, "alt_km": 713.2350993751124, "timestamp": "2025-12-22T11:33:20.833229+00:00", "meta": {"OBJECT_NAME": "COSMOS 2251 DEB", "OBJECT_ID": "1993-036EZ", "EPOCH": "2025-12-21T22:34:08.882976", "MEAN_MOTION": 14.3736316, "ECCENTRICITY": 0.0112573, "INCLINATION": 74.0407, "RA_OF_ASC_NODE": 291.9987, "ARG_OF_PERICENTER": 29.2483, "MEAN_ANOMALY": 36.9653, "EPHEMERIS_TYPE": 0, "CLASSIFICATION_TYPE": "U", "NORAD_CAT_ID": 33944, "ELEMENT_SET_NO": 999, "REV_AT_EPOCH": 88160, "BSTAR": 0.0003259, "MEAN_MOTION_DOT": 1.02e-05, "MEAN_MOTION_DDOT": 0}, "tle": {"line1": "1 33944U 93036EZ  25355.94038059  .00001020  00000+0  32590-3 0  9996", "line2": "2 33944  74.0407 291.9987 0112573  29.2483  36.9653 14.37363160881608"}}, "geometry": {"type": "Point", "coordinates": [-73.48846874495416, -15.306631448771158]}}, {"type": "Feature", "properties": {"norad_id": 33945, "name": "COSMOS 2251 DEB", "group": "cosmos-2251-debris", "lat": 39.69227206216773, "lon": -57.833308927313205, "alt_km": 759.0595035051729, "timestamp": "2025-12-22T11:33:20.833239+00:00", "meta": {"OBJECT_NAME": "COSMOS 2251 DEB", "OBJECT_ID": "1993-036FA", "EPOCH": "2025-12-21T20:18:03.022848", "MEAN_MOTION": 14.34607432, "ECCENTRICITY": 0.0022299, "INCLINATION": 74.0302, "RA_OF_ASC_NODE": 289.5815, "ARG_OF_PERICENTER": 13.4727, "MEAN_ANOMALY": 346.7015, "EPHEMERIS_TYPE": 0, "CLASSIFICATION_TYPE": "U", "NORAD_CAT_ID": 33945, "ELEMENT_SET_NO": 999, "REV_AT_EPOCH": 88146, "BSTAR": 0.00010461, "MEAN_MOTION_DOT": 2.7e-06, "MEAN_MOTION_DDOT": 0}, "tle": {"line1": "1 33945U 93036FA  25355.84586832  .00000270  00000+0  10461-3 0  9992", "line2": "2 33945  74.0302 289.5815 0022299  13.4727 346.7015 14.34607432881465"}}, "geometry": {"type": "Point", "coordinates": [-57.833308927313205, 39.69227206216773]}}, {"type": "Feature", "properties": {"norad_id": 33948, "name": "COSMOS 2251 DEB", "group": "cosmos-2251-debris", "lat": -67.30511941023902, "lon": -115.93386366131136, "alt_km": 775.3445381600222, "timestamp": "2025-12-22T11:33:20.833249+00:00", "meta": {"OBJECT_NAME": "COSMOS 2251 DEB", "OBJECT_ID": "1993-036FD", "EPOCH": "2025-12-21T20:50:44.208672", "MEAN_MOTION": 14.35639515, "ECCENTRICITY": 0.002314, "INCLINATION": 74.036, "RA_OF_ASC_NODE": 288.3846, "ARG_OF_PERICENTER": 2.0177, "MEAN_ANOMALY": 358.1065, "EPHEMERIS_TYPE": 0, "CLASSIFICATION_TYPE": "U", "NORAD_CAT_ID": 33948, "ELEMENT_SET_NO": 999, "REV_AT_EPOCH": 88154, "BSTAR": 0.00017709, "MEAN_MOTION_DOT": 4.86e-06, "MEAN_MOTION_DDOT": 0}, "tle": {"line1": "1 33948U 93036FD  25355.86856723  .00000486  00000+0  17709-3 0  9997", "line2": "2 33948  74.0360 288.3846 0023140   2.0177 358.1065 14.35639515881541"}}, "geometry": {"type": "Point", "coordinates": [-115.93386366131136, -67.30511941023902]}}, {"type": "Feature", "properties": {"norad_id": 33971, "name": "COSMOS 2251 DEB", "group": "cosmos-2251-debris", "lat": 39.81110609243365, "lon": 41.91511352292362, "alt_km": 768.864559574502, "timestamp": "2025-12-22T11:33:20.833260+00:00", "meta": {"OBJECT_NAME": "COSMOS 2251 DEB", "OBJECT_ID": "1993-036FE", "EPOCH": "2025-12-22T03:17:14.269344", "MEAN_MOTION": 14.39740837, "ECCENTRICITY": 0.0018908, "INCLINATION": 74.0242, "RA_OF_ASC_NODE": 236.3659, "ARG_OF_PERICENTER": 335.2501, "MEAN_ANOMALY": 177.8956, "EPHEMERIS_TYPE": 0, "CLASSIFICATION_TYPE": "U", "NORAD_CAT_ID": 33971, "ELEMENT_SET_NO": 999, "REV_AT_EPOCH": 88274, "BSTAR": 0.00023269, "MEAN_MOTION_DOT": 7.04e-06, "MEAN_MOTION_DDOT": 0}, "tle": {"line1": "1 33971U 93036FE  25356.13697071  .00000704  00000+0  23269-3 0  9994", "line2": "2 33971  74.0242 236.3659 0018908 335.2501 177.8956 14.39740837882741"}}, "geometry": {"type": "Point", "coordinates": [41.91511352292362, 39.81110609243365]}}, {"type": "Feature", "properties": {"norad_id": 33972, "name": "COSMOS 2251 DEB", "group": "cosmos-2251-debris", "lat": -44.052493680468515, "lon": 156.599391702101, "alt_km": 696.4090101887932, "timestamp": "2025-12-22T11:33:20.833270+00:00", "meta": {"OBJECT_NAME": "COSMOS 2251 DEB", "OBJECT_ID": "1993-036FF", "EPOCH": "2025-12-21T19:07:07.008096", "MEAN_MOTION": 14.36284396, "ECCENTRICITY": 0.0123763, "INCLINATION": 73.9934, "RA_OF_ASC_NODE": 173.9843, "ARG_OF_PERICENTER": 339.6751, "MEAN_ANOMALY": 34.805, "EPHEMERIS_TYPE": 0, "CLASSIFICATION_TYPE": "U", "NORAD_CAT_ID": 33972, "ELEMENT_SET_NO": 999, "REV_AT_EPOCH": 87204, "BSTAR": 0.0009622, "MEAN_MOTION_DOT": 3.042e-05, "MEAN_MOTION_DDOT": 0}, "tle": {"line1": "1 33972U 93036FF  25355.79660889  .00003042  00000+0  96220-3 0  9998", "line2": "2 33972  73.9934 173.9843 0123763 339.6751  34.8050 14.36284396872049"}}, "geometry": {"type": "Point", "coordinates": [156.599391702101, -44.052493680468515]}}, {"type": "Feature", "properties": {"norad_id": 33973, "name": "COSMOS 2251 DEB", "group": "cosmos-2251-debris", "lat": 24.501282967712907, "lon": 92.21455955801456, "alt_km": 758.6353292479926, "timestamp": "2025-12-22T11:33:20.833281+00:00", "meta": {"OBJECT_NAME": "COSMOS 2251 DEB", "OBJECT_ID": "1993-036FG", "EPOCH": "2025-12-21T16:02:41.722080", "MEAN_MOTION": 14.4539971, "ECCENTRICITY": 0.0047393, "INCLINATION": 74.0086, "RA_OF_ASC_NODE": 86.222, "ARG_OF_PERICENTER": 263.007, "MEAN_ANOMALY": 213.7639, "EPHEMERIS_TYPE": 0, "CLASSIFICATION_TYPE": "U", "NORAD_CAT_ID": 33973, "ELEMENT_SET_NO": 999, "REV_AT_EPOCH": 88729, "BSTAR": 0.00011891, "MEAN_MOTION_DOT": 3.96e-06, "MEAN_MOTION_DDOT": 0}, "tle": {"line1": "1 33973U 93036FG  25355.66853845  .00000396  00000+0  11891-3 0  9991", "line2": "2 33973  74.0086  86.2220 0047393 263.0070 213.7639 14.45399710887294"}}, "geometry": {"type": "Point", "coordinates": [92.21455955801456, 24.501282967712907]}}, {"type": "Feature", "properties": {"norad_id": 33975, "name": "COSMOS 2251 DEB", "group": "cosmos-2251-debris", "lat": -14.20406910242019, "lon": -108.45170775934702, "alt_km": 757.580171153787, "timestamp": "2025-12-22T11:33:20.833290+00:00", "meta": {"OBJECT_NAME": "COSMOS 2251 DEB", "OBJECT_ID": "1993-036FJ", "EPOCH": "2025-12-21T22:37:30.048096", "MEAN_MOTION": 14.00542381, "ECCENTRICITY": 0.0190992, "INCLINATION": 73.8017, "RA_OF_ASC_NODE": 68.2757, "ARG_OF_PERICENTER": 199.7503, "MEAN_ANOMALY": 159.6166, "EPHEMERIS_TYPE": 0, "CLASSIFICATION_TYPE": "U", "NORAD_CAT_ID": 33975, "ELEMENT_SET_NO": 999, "REV_AT_EPOCH": 85958, "BSTAR": 0.00047903, "MEAN_MOTION_DOT": 8.08e-06, "MEAN_MOTION_DDOT": 0}, "tle": {"line1": "1 33975U 93036FJ  25355.94270889  .00000808  00000+0  47903-3 0  9996", "line2": "2 33975  73.8017  68.2757 0190992 199.7503 159.6166 14.00542381859581"}}, "geometry": {"type": "Point", "coordinates": [-108.45170775934702, -14.20406910242019]}}]}